STARLINK-31210          
1 59033U 24038L   26068.27336903 -.00001216  00000+0 -34675-4 0  9992
2 59033  43.0051  25.9971 0001332 270.8721  89.1978 15.27570671114799
TROLL                   
1 62658U 25009BB  26068.22522958  .00013174  00000+0  48220-3 0  9994
2 62658  97.3932 150.7169 0001816  59.1850 300.9568 15.28164315118170
