[{"OBJECT_NAME":"STARLINK-31210","OBJECT_ID":"2024-038L","EPOCH":"2026-03-09T06:33:39.084192","MEAN_MOTION":15.27570671,"ECCENTRICITY":0.00013321,"INCLINATION":43.0051,"RA_OF_ASC_NODE":25.9971,"ARG_OF_PERICENTER":270.8721,"MEAN_ANOMALY":89.1978,"EPHEMERIS_TYPE":0,"CLASSIFICATION_TYPE":"U","NORAD_CAT_ID":59033,"ELEMENT_SET_NO":999,"REV_AT_EPOCH":11479,"BSTAR":-3.467489e-5,"MEAN_MOTION_DOT":-1.216e-5,"MEAN_MOTION_DDOT":0},{"OBJECT_NAME":"TROLL","OBJECT_ID":"2025-009BB","EPOCH":"2026-03-09T05:24:19.835712","MEAN_MOTION":15.28164315,"ECCENTRICITY":0.00018165,"INCLINATION":97.3932,"RA_OF_ASC_NODE":150.7169,"ARG_OF_PERICENTER":59.185,"MEAN_ANOMALY":300.9568,"EPHEMERIS_TYPE":0,"CLASSIFICATION_TYPE":"U","NORAD_CAT_ID":62658,"ELEMENT_SET_NO":999,"REV_AT_EPOCH":11817,"BSTAR":0.00048220305,"MEAN_MOTION_DOT":0.00013174,"MEAN_MOTION_DDOT":0}]
